{
  "tilejson": "2.0.0",
  "name": "maplibre",
  "attribution": "<a href=\"https://www.maptiler.com/copyright/\" target=\"_blank\">&copy; MapTiler</a> <a href=\"https://www.openstreetmap.org/copyright\" target=\"_blank\">&copy; OpenStreetMap contributors</a>",
  "type": "baselayer",
  "scale": "1.000000",
  "bounds": [
    -180,
    -85.051129,
    180,
    85.05112900000002
  ],
  "format": "pbf",
  "legend": "",
  "maxzoom": 14,
  "minzoom": 0,
  "profile": "mercator",
  "version": "1",
  "vector_layers":  [{"maxzoom":14,"fields":{"class":"String"},"minzoom":0,"id":"water","description":""},{"maxzoom":14,"fields":{"name:mt":"String","name:pt":"String","name:az":"String","name:ka":"String","name:rm":"String","name:ko":"String","name:kn":"String","name:ar":"String","name:cs":"String","name_de":"String","name:ro":"String","name:it":"String","name_int":"String","name:ru":"String","name:pl":"String","name:ca":"String","name:lv":"String","name:bg":"String","name:cy":"String","name:fi":"String","name:he":"String","name:da":"String","name:de":"String","name:tr":"String","name:fr":"String","name:mk":"String","name:nonlatin":"String","name:fy":"String","name:be":"String","name:zh":"String","name:sr":"String","name:sl":"String","name:nl":"String","name:ja":"String","name:lt":"String","name:no":"String","name:kk":"String","name:ko_rm":"String","name:ja_rm":"String","name:br":"String","name:bs":"String","name:lb":"String","name:la":"String","name:sk":"String","name:uk":"String","name:hy":"String","name:sv":"String","name_en":"String","name:hu":"String","name:hr":"String","class":"String","name:sq":"String","name:el":"String","name:ga":"String","name:en":"String","name":"String","name:gd":"String","name:ja_kana":"String","name:is":"String","name:th":"String","name:latin":"String","name:sr-Latn":"String","name:et":"String","name:es":"String"},"minzoom":0,"id":"waterway","description":""},{"maxzoom":14,"fields":{"class":"String","subclass":"String"},"minzoom":0,"id":"landcover","description":""},{"maxzoom":14,"fields":{"class":"String"},"minzoom":0,"id":"landuse","description":""},{"maxzoom":14,"fields":{"name:mt":"String","name:pt":"String","name:az":"String","name:ka":"String","name:rm":"String","name:ko":"String","name:kn":"String","name:ar":"String","name:cs":"String","rank":"Number","name_de":"String","name:ro":"String","name:it":"String","name_int":"String","name:lv":"String","name:pl":"String","name:de":"String","name:ca":"String","name:bg":"String","name:cy":"String","name:fi":"String","name:he":"String","name:da":"String","ele":"Number","name:tr":"String","name:fr":"String","name:mk":"String","name:nonlatin":"String","name:fy":"String","name:be":"String","name:zh":"String","name:sl":"String","name:nl":"String","name:ja":"String","name:lt":"String","name:no":"String","name:kk":"String","name:ko_rm":"String","name:ja_rm":"String","name:br":"String","name:bs":"String","name:lb":"String","name:la":"String","name:sk":"String","name:uk":"String","name:hy":"String","name:ru":"String","name:sv":"String","name_en":"String","name:hu":"String","name:hr":"String","name:sr":"String","name:sq":"String","name:el":"String","name:ga":"String","name:en":"String","name":"String","name:gd":"String","ele_ft":"Number","name:ja_kana":"String","name:is":"String","osm_id":"Number","name:th":"String","name:latin":"String","name:sr-Latn":"String","name:et":"String","name:es":"String"},"minzoom":0,"id":"mountain_peak","description":""},{"maxzoom":14,"fields":{"class":"String"},"minzoom":0,"id":"park","description":""},{"maxzoom":14,"fields":{"admin_level":"Number","disputed":"Number","maritime":"Number"},"minzoom":0,"id":"boundary","description":""},{"maxzoom":14,"fields":{"class":"String"},"minzoom":0,"id":"aeroway","description":""},{"maxzoom":14,"fields":{"brunnel":"String","ramp":"Number","class":"String","service":"String","oneway":"Number"},"minzoom":0,"id":"transportation","description":""},{"maxzoom":14,"fields":{"render_min_height":"Number","render_height":"Number"},"minzoom":0,"id":"building","description":""},{"maxzoom":14,"fields":{"name:mt":"String","name:pt":"String","name:az":"String","name:ka":"String","name:rm":"String","name:ko":"String","name:kn":"String","name:ar":"String","name:cs":"String","name_de":"String","name:ro":"String","name:it":"String","name_int":"String","name:ru":"String","name:pl":"String","name:ca":"String","name:lv":"String","name:bg":"String","name:cy":"String","name:fi":"String","name:he":"String","name:da":"String","name:de":"String","name:tr":"String","name:fr":"String","name:mk":"String","name:nonlatin":"String","name:fy":"String","name:be":"String","name:zh":"String","name:sr":"String","name:sl":"String","name:nl":"String","name:ja":"String","name:lt":"String","name:no":"String","name:kk":"String","name:ko_rm":"String","name:ja_rm":"String","name:br":"String","name:bs":"String","name:lb":"String","name:la":"String","name:sk":"String","name:uk":"String","name:hy":"String","name:sv":"String","name_en":"String","name:hu":"String","name:hr":"String","class":"String","name:sq":"String","name:el":"String","name:ga":"String","name:en":"String","name":"String","name:gd":"String","name:ja_kana":"String","name:is":"String","name:th":"String","name:latin":"String","name:sr-Latn":"String","name:et":"String","name:es":"String"},"minzoom":0,"id":"water_name","description":""},{"maxzoom":14,"fields":{"name:mt":"String","name:pt":"String","name:az":"String","name:ka":"String","name:rm":"String","name:ko":"String","name:kn":"String","name:ar":"String","name:cs":"String","name_de":"String","name:ro":"String","name:it":"String","name_int":"String","name:ru":"String","name:pl":"String","name:ca":"String","name:lv":"String","name:bg":"String","name:cy":"String","name:fi":"String","name:he":"String","name:da":"String","name:de":"String","name:tr":"String","name:fr":"String","name:mk":"String","name:nonlatin":"String","name:fy":"String","name:be":"String","name:zh":"String","name:sr":"String","name:sl":"String","name:nl":"String","name:ja":"String","name:lt":"String","name:no":"String","name:kk":"String","name:ko_rm":"String","name:ja_rm":"String","name:br":"String","name:bs":"String","name:lb":"String","name:la":"String","name:sk":"String","name:uk":"String","name:hy":"String","name:sv":"String","name_en":"String","name:hu":"String","name:hr":"String","class":"String","name:sq":"String","network":"String","name:el":"String","name:ga":"String","name:en":"String","name":"String","name:gd":"String","ref":"String","name:ja_kana":"String","ref_length":"Number","name:is":"String","name:th":"String","name:latin":"String","name:sr-Latn":"String","name:et":"String","name:es":"String"},"minzoom":0,"id":"transportation_name","description":""},{"maxzoom":14,"fields":{"name:mt":"String","name:pt":"String","name:az":"String","name:ka":"String","name:rm":"String","name:ko":"String","name:kn":"String","name:ar":"String","name:cs":"String","rank":"Number","name_de":"String","name:ro":"String","name:it":"String","name_int":"String","name:ru":"String","name:pl":"String","name:ca":"String","name:lv":"String","name:bg":"String","name:cy":"String","name:hr":"String","name:fi":"String","name:he":"String","name:da":"String","name:de":"String","name:tr":"String","name:fr":"String","name:mk":"String","name:nonlatin":"String","name:fy":"String","name:be":"String","name:zh":"String","name:sr":"String","name:sl":"String","name:nl":"String","name:ja":"String","name:ko_rm":"String","name:no":"String","name:kk":"String","capital":"Number","name:ja_rm":"String","name:br":"String","name:bs":"String","name:lb":"String","name:la":"String","name:sk":"String","name:uk":"String","name:hy":"String","name:sv":"String","name_en":"String","name:hu":"String","name:lt":"String","class":"String","name:sq":"String","name:el":"String","name:ga":"String","name:en":"String","name":"String","name:gd":"String","name:ja_kana":"String","name:is":"String","name:th":"String","name:latin":"String","name:sr-Latn":"String","name:et":"String","name:es":"String"},"minzoom":0,"id":"place","description":""},{"maxzoom":14,"fields":{"housenumber":"String"},"minzoom":0,"id":"housenumber","description":""},{"maxzoom":14,"fields":{"name:mt":"String","name:pt":"String","name:az":"String","name:ka":"String","name:rm":"String","name:ko":"String","name:kn":"String","name:ar":"String","name:cs":"String","rank":"Number","name_de":"String","name:ro":"String","name:it":"String","name_int":"String","name:ru":"String","name:pl":"String","name:ca":"String","name:lv":"String","name:bg":"String","name:cy":"String","name:fi":"String","name:he":"String","name:da":"String","subclass":"String","name:de":"String","name:tr":"String","name:fr":"String","name:mk":"String","name:nonlatin":"String","name:fy":"String","name:be":"String","name:zh":"String","name:sr":"String","name:sl":"String","name:nl":"String","name:ja":"String","name:lt":"String","name:no":"String","name:kk":"String","name:ko_rm":"String","name:ja_rm":"String","name:br":"String","name:bs":"String","name:lb":"String","name:la":"String","name:sk":"String","name:uk":"String","name:hy":"String","name:sv":"String","name_en":"String","name:hu":"String","name:hr":"String","class":"String","name:sq":"String","name:el":"String","name:ga":"String","name:en":"String","name":"String","name:gd":"String","name:ja_kana":"String","name:is":"String","name:th":"String","name:latin":"String","name:sr-Latn":"String","name:et":"String","name:es":"String"},"minzoom":0,"id":"poi","description":""}],
  "crs": "EPSG:3857",
  "crs_wkt": "PROJCS[\"WGS 84 / Pseudo-Mercator\",GEOGCS[\"WGS 84\",DATUM[\"WGS_1984\",SPHEROID[\"WGS 84\",6378137,298.257223563,AUTHORITY[\"EPSG\",\"7030\"]],AUTHORITY[\"EPSG\",\"6326\"]],PRIMEM[\"Greenwich\",0,AUTHORITY[\"EPSG\",\"8901\"]],UNIT[\"degree\",0.0174532925199433,AUTHORITY[\"EPSG\",\"9122\"]],AUTHORITY[\"EPSG\",\"4326\"]],PROJECTION[\"Mercator_1SP\"],PARAMETER[\"central_meridian\",0],PARAMETER[\"scale_factor\",1],PARAMETER[\"false_easting\",0],PARAMETER[\"false_northing\",0],UNIT[\"metre\",1,AUTHORITY[\"EPSG\",\"9001\"]],AXIS[\"X\",EAST],AXIS[\"Y\",NORTH],EXTENSION[\"PROJ4\",\"+proj=merc +a=6378137 +b=6378137 +lat_ts=0.0 +lon_0=0.0 +x_0=0.0 +y_0=0 +k=1.0 +units=m +nadgrids=@null +wktext +no_defs\"],AUTHORITY[\"EPSG\",\"3857\"]]",
  "extent": [
    -20037508.342789244,
    -20037508.6269291,
    20037508.342789244,
    20037508.626929108
  ],
  "center": [
    0,
    2.5444437451708134e-14,
    1
  ],
  "tiles": ["pmtiles://https://comtiles.s3.eu-central-1.amazonaws.com/europe-new.pmtiles?response-content-disposition=inline&X-Amz-Security-Token=IQoJb3JpZ2luX2VjECcaDGV1LWNlbnRyYWwtMSJIMEYCIQCza289jxtFwKEOSTJre%2BnmiL61FuB2OC9kVbEq10VcTgIhAO3qTtzeKoZSY7%2BWmYUVLHexZ6He%2BDwYCLHtP1Kjk4laKu0CCID%2F%2F%2F%2F%2F%2F%2F%2F%2F%2FwEQAxoMNDAwMjU3MzUzMDkxIgxkccpxU9w7H9nsYcwqwQIcEOUMx%2BUs5nIIslg8GrkXBjM3guMEibmRJ9tEXBxVEc99ASx1Y%2F60suO6T%2B0EM6vARRUThiEqRasSogKZdC1aL7LMHFJXTJxiLY3nbCWqAHnE%2F%2F%2FqHN3SPJbz%2Fg7jBszh0QAOA%2Bs8jSEHGP6fhVWralR%2Fi4x9fOR%2FeUBn5zEMH3QQV7L%2FOfIKR0S9AZVoe5d0KUUry3oXdb4t3paAyKw1w6cwkVkkpwXGt4xi0EedkqS53IHT3RO5atyYJMlm1AHD5Q1a4g4SNJF7VMgLW30vtv%2BVkypo1j24WsRKWJSTTL7D9V4gMP1i9gihG%2FydlVke0dxBwogbjJ1xDy0yPiSkKRn9CoD0bpBttvpelOsYx42CBIfN2AJrpAvU%2FkXtGW0%2BbCOwuyPw4fW0GVJ3xaFlJthh25r%2Fv3Nb45rlv81C2eEwvPfakAY6sgLVzlBb2ovoqc63xglZHtcchn09w6DTnPgy6psCtNg5H31YRkh%2FmUWghS03FBRjrkvSFR%2BiEFvsHwHUptPHRJFJlVM0bck0ukHWVB196AcUV9jnAvn79o2wrlIRkZjhJhxtM9lWIhhYIKrymmYP2e%2BEZjUfWXcTfFTm0vDjOgilMxfdRWpo0xDzwvfUSt2tfPEXPCsw7IoGtmNqOQJNmbPjLIU4YwLUOEZg9hTOYYzyTF7C7juT2PxrHYIj0m20%2Bc1Xf2g0QQX%2Fl0am88ZhLVZZsIOv89Y4ji6rng8nd6RI5cN2AsqU4XG7peyKoGdpviJOKAHsUMNAUJpa0LCTGs9g2tbzg%2Fi0c2xi%2FHHd7p37BshTFtaZTOnap1aZmawhlaVMlC%2Bb7X1i3eMa8HNBrcKrYHo%3D&X-Amz-Algorithm=AWS4-HMAC-SHA256&X-Amz-Date=20220223T231339Z&X-Amz-SignedHeaders=host&X-Amz-Expires=900&X-Amz-Credential=ASIAV2MJSQWBRM6YFWGM%2F20220223%2Feu-central-1%2Fs3%2Faws4_request&X-Amz-Signature=916abf95628ab0ff066477c55765754fbb5e7fc613343264ab46a75a3f0acca6/{z}/{x}/{y}"]
}